NORAD_CAT_ID,OBJECT_NAME,OBJECT_TYPE,EPOCH,MEAN_MOTION,ECCENTRICITY,INCLINATION,RA_OF_ASC_NODE,ARG_OF_PERICENTER,MEAN_ANOMALY,BSTAR,MEAN_MOTION_DOT,MEAN_MOTION_DDOT,TLE_LINE0,TLE_LINE1,TLE_LINE2,SEMIMAJOR_AXIS,PERIOD,APOGEE,PERIGEE,DECAYED
50177.0,STARLINK-3282,PAYLOAD,2024-07-15 09:04:25,15.08857727,0.0001256,53.2164,73.0017,94.5918,265.5217,0.0011984,0.00018845,0.0,0 STARLINK-3282,1 50177U 21125X   24197.37807598  .00018845  00000-0  11984-2 0  9992,2 50177  53.2164  73.0017 0001256  94.5918 265.5217 15.08857727145188,6917.826,95.436,540.56,538.822,0.0
50177.0,STARLINK-3282,PAYLOAD,2024-07-15 21:47:31,15.08836883,0.0001086,53.2166,70.6268,105.2337,254.8775,0.00050385,7.739e-05,0.0,0 STARLINK-3282,1 50177U 21125X   24197.90799954  .00007739  00000-0  50385-3 0  9996,2 50177  53.2166  70.6268 0001086 105.2337 254.8775 15.08836883145266,6917.89,95.438,540.506,539.004,0.0
50177.0,STARLINK-3282,PAYLOAD,2024-07-15 23:22:54,15.08841159,0.0001295,53.2162,70.3284,105.211,254.9026,0.00070507,0.00010951,0.0,0 STARLINK-3282,1 50177U 21125X   24197.97423941  .00010951  00000-0  70507-3 0  9991,2 50177  53.2162  70.3284 0001295 105.2110 254.9026 15.08841159145765,6917.877,95.437,540.638,538.846,0.0
50177.0,STARLINK-3282,PAYLOAD,2024-07-16 21:38:17,15.08860283,0.0001259,53.2168,66.1668,90.7471,269.3666,0.00078427,0.00012223,0.0,0 STARLINK-3282,1 50177U 21125X   24198.90159436  .00012223  00000-0  78427-3 0  9993,2 50177  53.2168  66.1668 0001259  90.7471 269.3666 15.08860283145903,6917.818,95.436,540.554,538.812,0.0
50177.0,STARLINK-3282,PAYLOAD,2024-07-17 08:45:59,15.08866162,0.0001363,53.2175,64.0833,87.2689,272.8459,0.00093587,0.00014648,0.0,0 STARLINK-3282,1 50177U 21125X   24199.36526766  .00014648  00000-0  93587-3 0  9995,2 50177  53.2175  64.0833 0001363  87.2689 272.8459 15.08866162145484,6917.8,95.436,540.608,538.723,0.0
50177.0,STARLINK-3282,PAYLOAD,2024-07-17 21:29:04,15.08824425,0.0001257,53.2174,61.704,119.6974,240.4143,0.0014085,0.0002219,0.0,0 STARLINK-3282,1 50177U 21125X   24199.89519586  .00022190  00000-0  14085-2 0  9991,2 50177  53.2174  61.7040 0001257 119.6974 240.4143 15.08824425145562,6917.928,95.439,540.663,538.923,0.0
50177.0,STARLINK-3282,PAYLOAD,2024-07-18 00:39:51,15.08827524,0.0001452,53.2177,61.1087,125.355,234.7578,0.0012652,0.00019898,0.0,0 STARLINK-3282,1 50177U 21125X   24200.02767686  .00019898  00000-0  12652-2 0  9994,2 50177  53.2177  61.1087 0001452 125.3550 234.7578 15.08827524146079,6917.919,95.438,540.788,538.779,0.0
50177.0,STARLINK-3282,PAYLOAD,2024-07-18 19:44:29,15.08843155,0.0001483,53.2182,57.5388,120.8811,239.2327,0.00087462,0.0001366,0.0,0 STARLINK-3282,1 50177U 21125X   24200.82256108  .00013660  00000-0  87462-3 0  9997,2 50177  53.2182  57.5388 0001483 120.8811 239.2327 15.08843155146195,6917.871,95.437,540.762,538.71,0.0
50177.0,STARLINK-3282,PAYLOAD,2024-07-19 00:30:38,15.08844775,0.000142,53.218,56.6478,118.8498,241.2637,0.00074919,0.00011657,0.0,0 STARLINK-3282,1 50177U 21125X   24201.02128125  .00011657  00000-0  74919-3 0  9994,2 50177  53.2180  56.6478 0001420 118.8498 241.2637 15.08844775146222,6917.866,95.437,540.713,538.748,0.0
50177.0,STARLINK-3282,PAYLOAD,2024-07-19 21:10:39,15.08841209,0.0001094,53.2175,52.7852,76.3391,283.7723,0.00060715,9.388e-05,0.0,0 STARLINK-3282,1 50177U 21125X   24201.88240445  .00009388  00000-0  60715-3 0  9995,2 50177  53.2175  52.7852 0001094  76.3391 283.7723 15.08841209145861,6917.877,95.437,540.499,538.985,0.0
50177.0,STARLINK-3282,PAYLOAD,2024-07-20 06:42:58,15.08863346,0.0001123,53.2179,51.0012,79.5018,280.6101,0.0013589,0.00021419,0.0,0 STARLINK-3282,1 50177U 21125X   24202.27984041  .00021419  00000-0  13589-2 0  9991,2 50177  53.2179  51.0012 0001123  79.5018 280.6101 15.08863346145928,6917.809,95.436,540.451,538.897,0.0
50177.0,STARLINK-3282,PAYLOAD,2024-07-20 21:01:27,15.08841749,9.85e-05,53.2166,48.326,87.6243,272.4862,0.0011784,0.00018517,0.0,0 STARLINK-3282,1 50177U 21125X   24202.87600711  .00018517  00000-0  11784-2 0  9996,2 50177  53.2166  48.3260 0000985  87.6243 272.4862 15.08841749146010,6917.875,95.437,540.421,539.059,0.0
50177.0,STARLINK-3282,PAYLOAD,2024-07-21 06:33:45,15.08863255,0.0001075,53.218,46.5414,85.127,274.9845,0.0017208,0.00027222,0.0,0 STARLINK-3282,1 50177U 21125X   24203.27344330  .00027222  00000-0  17208-2 0  9993,2 50177  53.2180  46.5414 0001075  85.1270 274.9845 15.08863255146565,6917.809,95.436,540.418,538.931,0.0
50177.0,STARLINK-3282,PAYLOAD,2024-07-21 20:52:14,15.08848829,0.0001039,53.2164,43.8639,90.6436,269.4675,0.0014408,0.00022722,0.0,0 STARLINK-3282,1 50177U 21125X   24203.86960726  .00022722  00000-0  14408-2 0  9990,2 50177  53.2164  43.8639 0001039  90.6436 269.4675 15.08848829146167,6917.853,95.437,540.437,539.0,0.0
50177.0,STARLINK-3282,PAYLOAD,2024-07-22 22:18:24,15.08873005,0.0001259,53.2171,39.1063,69.7582,290.3545,0.0017988,0.00028482,0.0,0 STARLINK-3282,1 50177U 21125X   24204.92944551  .00028482  00000-0  17988-2 0  9991,2 50177  53.2171  39.1063 0001259  69.7582 290.3545 15.08873005146812,6917.78,95.435,540.515,538.774,0.0
50177.0,STARLINK-3282,PAYLOAD,2024-07-23 06:15:19,15.08862621,0.0001024,53.2173,37.6207,68.1389,291.9712,0.0011973,0.0001883,0.0,0 STARLINK-3282,1 50177U 21125X   24205.26064046  .00018830  00000-0  11973-2 0  9995,2 50177  53.2173  37.6207 0001024  68.1389 291.9712 15.08862621146371,6917.811,95.436,540.385,538.968,0.0
50177.0,STARLINK-3282,PAYLOAD,2024-07-24 12:27:39,15.08845153,0.0001056,53.2163,31.9689,85.1955,274.9157,0.0010829,0.00016991,0.0,0 STARLINK-3282,1 50177U 21125X   24206.51921141  .00016991  00000-0  10829-2 0  9997,2 50177  53.2163  31.9689 0001056  85.1955 274.9157 15.08845153146560,6917.865,95.437,540.46,538.999,0.0
50177.0,STARLINK-3282,PAYLOAD,2024-07-24 21:59:58,15.08861537,2.64e-05,53.2171,30.1845,81.9577,278.1445,0.0013275,0.00020915,0.0,0 STARLINK-3282,1 50177U 21125X   24206.91664707  .00020915  00000-0  13275-2 0  9992,2 50177  53.2171  30.1845 0000264  81.9577 278.1445 15.08861537147110,6917.815,95.436,539.862,539.497,0.0
50177.0,STARLINK-3282,PAYLOAD,2024-07-25 12:18:26,15.08859916,0.0002466,53.2181,27.5087,96.9583,263.169,0.0014026,0.00022117,0.0,0 STARLINK-3282,1 50177U 21125X   24207.51281135  .00022117  00000-0  14026-2 0  9990,2 50177  53.2181  27.5087 0002466  96.9583 263.1690 15.08859916146717,6917.82,95.436,541.39,537.979,0.0
50177.0,STARLINK-3282,PAYLOAD,2024-07-25 21:50:45,15.08857911,3.15e-05,53.2181,25.725,251.9363,108.1595,0.0015341,0.00024224,0.0,0 STARLINK-3282,1 50177U 21125X   24207.91024638  .00024224  00000-0  15341-2 0  9999,2 50177  53.2181  25.7250 0000315 251.9363 108.1595 15.08857911147265,6917.826,95.436,539.909,539.473,0.0
50177.0,STARLINK-3282,PAYLOAD,2024-07-26 20:06:09,15.08851783,0.0001064,53.2174,21.5619,84.8493,275.262,0.00050129,7.702e-05,0.0,0 STARLINK-3282,1 50177U 21125X   24208.83760781  .00007702  00000-0  50129-3 0  9993,2 50177  53.2174  21.5619 0001064  84.8493 275.2620 15.08851783146916,6917.844,95.437,540.445,538.973,0.0
50177.0,STARLINK-3282,PAYLOAD,2024-07-26 21:41:32,15.08854137,0.000112,53.2148,21.2642,88.9514,271.1606,0.00047581,7.296e-05,0.0,0 STARLINK-3282,1 50177U 21125X   24208.90384636  .00007296  00000-0  47581-3 0  9998,2 50177  53.2148  21.2642 0001120  88.9514 271.1606 15.08854137147413,6917.837,95.437,540.477,538.927,0.0
50177.0,STARLINK-3282,PAYLOAD,2024-07-27 04:03:04,15.08865307,0.0001087,53.2162,20.0748,88.7689,271.3427,0.00057903,8.946e-05,0.0,0 STARLINK-3282,1 50177U 21125X   24209.16879958  .00008946  00000-0  57903-3 0  9995,2 50177  53.2162  20.0748 0001087  88.7689 271.3427 15.08865307146969,6917.803,95.436,540.42,538.916,0.0
50177.0,STARLINK-3282,PAYLOAD,2024-07-27 12:00:01,15.088279,0.0001483,53.2137,18.5884,88.4888,271.6274,-0.00038397,-6.392e-05,0.0,0 STARLINK-3282,1 50177U 21125X   24209.50001161 -.00006392  00000-0 -38397-3 0  9997,2 50177  53.2137  18.5884 0001483  88.4888 271.6274 15.08827900147019,6917.917,95.438,540.808,538.756,0.0
50177.0,STARLINK-3282,PAYLOAD,2024-07-27 21:32:20,15.08827516,0.0001583,53.2137,16.8041,91.7292,268.3881,-0.00021113,-3.645e-05,0.0,0 STARLINK-3282,1 50177U 21125X   24209.89745506 -.00003645  00000-0 -21113-3 0  9993,2 50177  53.2137  16.8041 0001583  91.7292 268.3881 15.08827516147562,6917.919,95.438,540.879,538.688,0.0
50177.0,STARLINK-3282,PAYLOAD,2024-07-28 03:53:52,15.08837437,0.0001465,53.2151,15.6154,92.2174,267.8986,0.00018354,2.634e-05,0.0,0 STARLINK-3282,1 50177U 21125X   24210.16241388  .00002634  00000-0  18354-3 0  9992,2 50177  53.2151  15.6154 0001465  92.2174 267.8986 15.08837437147118,6917.888,95.438,540.767,538.74,0.0
50177.0,STARLINK-3282,PAYLOAD,2024-07-28 19:47:44,15.0883925,0.0001555,53.217,12.6421,91.6769,268.4401,0.00061184,9.463e-05,0.0,0 STARLINK-3282,1 50177U 21125X   24210.82482017  .00009463  00000-0  61184-3 0  9997,2 50177  53.2170  12.6421 0001555  91.6769 268.4401 15.08839250147705,6917.883,95.438,540.823,538.672,0.0
50177.0,STARLINK-3282,PAYLOAD,2024-07-29 10:06:12,15.08855869,0.0001925,53.2152,9.9655,77.6574,282.4634,0.00072202,0.00011227,0.0,0 STARLINK-3282,1 50177U 21125X   24211.42097664  .00011227  00000-0  72202-3 0  9998,2 50177  53.2152   9.9655 0001925  77.6574 282.4634 15.08855869147306,6917.832,95.437,541.029,538.365,0.0
50177.0,STARLINK-3282,PAYLOAD,2024-07-29 18:03:07,15.08851541,0.0001231,53.2165,8.4792,85.6284,274.4849,0.00049118,7.54e-05,0.0,0 STARLINK-3282,1 50177U 21125X   24211.75217447  .00007540  00000-0  49118-3 0  9990,2 50177  53.2165   8.4792 0001231  85.6284 274.4849 15.08851541147350,6917.845,95.437,540.562,538.859,0.0
50177.0,STARLINK-3282,PAYLOAD,2024-07-30 03:35:26,15.08856429,0.0001419,53.2153,6.6951,80.3753,279.7399,0.00047316,7.254e-05,0.0,0 STARLINK-3282,1 50177U 21125X   24212.14961084  .00007254  00000-0  47316-3 0  9997,2 50177  53.2153   6.6951 0001419  80.3753 279.7399 15.08856429147904,6917.83,95.437,540.677,538.714,0.0
